      2.10          N: GNSS NAV DATA                        RINEX VERSION / TYPE
fic2rin                                 02/25/2019 00:18:28 PGM / RUN BY / DATE
                                                            END OF HEADER
20 19  2 24  9 59 44.0 5.225199274719e-04 3.410605131648e-13 0.000000000000e+00
    7.000000000000e+00-3.550000000000e+01 5.676665027313e-09-1.368421718337e+00
   -1.834705471992e-06 4.398639546707e-03 5.872920155525e-06 5.153669250488e+03
    3.598400000000e+04-8.381903171539e-08-4.250677300057e-01-4.656612873077e-08
    9.303258148444e-01 2.525312500000e+02 2.287943951923e+00-8.748578699133e-09
   -5.250218692682e-11 1.000000000000e+00 2.042000000000e+03 0.000000000000e+00
    2.400000000000e+00 0.000000000000e+00-8.381903171539e-09 7.000000000000e+00
    3.462000000000e+04 4.000000000000e+00
18 19  2 24 11 59 44.0 2.911640331149e-05 3.751665644813e-12 0.000000000000e+00
    3.000000000000e+00 1.384375000000e+01 4.953420615565e-09-2.352909762193e-01
    6.593763828278e-07 1.504586567171e-02 7.847324013710e-06 5.153727741241e+03
    4.318400000000e+04-1.229345798492e-07-1.402368501226e+00 9.872019290924e-08
    9.527318067039e-01 2.303125000000e+02 1.376634021098e+00-8.572499936174e-09
    4.560904265684e-10 1.000000000000e+00 2.042000000000e+03 0.000000000000e+00
    2.400000000000e+00 0.000000000000e+00-6.053596735001e-09 3.000000000000e+00
    3.600000000000e+04 4.000000000000e+00
17 19  2 24 11 59 44.0 1.446902751923e-05 5.684341886081e-12 0.000000000000e+00
    7.000000000000e+00-3.131250000000e+01 3.640508784661e-09 2.120435545497e+00
   -1.674517989159e-06 1.295116497204e-02 9.737908840179e-06 5.153704969406e+03
    4.318400000000e+04 1.527369022369e-07-2.349517029878e+00-1.918524503708e-07
    9.839455733512e-01 2.010312500000e+02-1.720175695011e+00-7.541742715285e-09
    6.607418082628e-11 1.000000000000e+00 2.042000000000e+03 0.000000000000e+00
    2.400000000000e+00 0.000000000000e+00-1.117587089539e-08 7.000000000000e+00
    3.600000000000e+04 4.000000000000e+00
13 19  2 24 11 59 44.0-7.385667413473e-05 1.364242052659e-12 0.000000000000e+00
    3.000000000000e+01 2.018750000000e+01 4.359824461332e-09 1.073406431275e+00
    1.041218638420e-06 3.704118193127e-03 1.119449734688e-05 5.153667400360e+03
    4.318400000000e+04-7.078051567078e-08 8.614824407273e-01 2.421438694000e-08
    9.681113781591e-01 1.688750000000e+02 1.361890832174e+00-7.904257815494e-09
   -1.196478409557e-10 1.000000000000e+00 2.042000000000e+03 0.000000000000e+00
    2.400000000000e+00 0.000000000000e+00-1.117587089539e-08 3.000000000000e+01
    3.600000000000e+04 4.000000000000e+00
20 19  2 24 11 59 44.0 5.225227214396e-04 3.410605131648e-13 0.000000000000e+00
    3.300000000000e+01-3.731250000000e+01 5.672379134502e-09-3.183473645827e-01
   -1.978129148483e-06 4.398240707815e-03 5.526468157768e-06 5.153668006897e+03
    4.318400000000e+04-3.166496753693e-08-4.251309426959e-01-3.911554813385e-08
    9.303255515192e-01 2.567812500000e+02 2.288062065003e+00-8.765722270374e-09
   -2.892977646988e-11 1.000000000000e+00 2.042000000000e+03 0.000000000000e+00
    2.400000000000e+00 0.000000000000e+00-8.381903171539e-09 3.300000000000e+01
    3.600000000000e+04 4.000000000000e+00
 2 19  2 24 12  0  0.0-1.480896025896e-04-9.777068044059e-12 0.000000000000e+00
    1.000000000000e+02 2.743750000000e+01 4.933419782451e-09 3.026813098801e-01
    1.292675733566e-06 1.890904840548e-02 7.782131433487e-06 5.153653587341e+03
    4.320000000000e+04-3.650784492493e-07-1.416074855739e+00 1.490116119385e-08
    9.533377298173e-01 2.289062500000e+02-1.769270042250e+00-8.601429712644e-09
    3.485859485754e-10 1.000000000000e+00 2.042000000000e+03 0.000000000000e+00
    2.400000000000e+00 0.000000000000e+00-2.048909664154e-08 1.000000000000e+02
    3.600000000000e+04 4.000000000000e+00
 1 19  2 24 12  0  0.0-1.691854558885e-04-7.162270776462e-12 0.000000000000e+00
    1.480000000000e+02 1.009375000000e+01 4.431613165905e-09-1.920504225281e-03
    6.053596735001e-07 8.406319306232e-03 7.599592208862e-06 5.153656476974e+03
    4.320000000000e+04 5.215406417847e-08-1.349227563121e+00 7.264316082001e-08
    9.742387944420e-01 2.428125000000e+02 6.832159219998e-01-8.168197381064e-09
    3.914448766789e-10 1.000000000000e+00 2.042000000000e+03 0.000000000000e+00
    2.400000000000e+00 0.000000000000e+00 5.587935447693e-09 1.480000000000e+02
    3.600000000000e+04 4.000000000000e+00
 8 19  2 24 12  0  0.0-1.339288428426e-04-1.364242052659e-12 0.000000000000e+00
    1.300000000000e+01-4.381250000000e+01 4.078741324519e-09 2.477850448988e+00
   -2.220273017883e-06 4.302169079892e-03 9.847804903984e-06 5.153706615448e+03
    4.320000000000e+04 1.862645149231e-08-2.415749260533e+00 2.048909664154e-08
    9.702498308457e-01 1.941875000000e+02-3.337177898740e-01-7.896757503075e-09
   -4.964492505326e-11 1.000000000000e+00 2.042000000000e+03 0.000000000000e+00
    2.400000000000e+00 0.000000000000e+00 5.122274160385e-09 1.300000000000e+01
    3.600000000000e+04 4.000000000000e+00
 7 19  2 24 12  0  0.0 2.649053931236e-05-7.275957614183e-12 0.000000000000e+00
    1.400000000000e+01 6.878125000000e+01 4.784127849557e-09-6.215188602752e-01
    3.563240170479e-06 1.223504240625e-02 6.886199116707e-06 5.153608005524e+03
    4.320000000000e+04 1.080334186554e-07 1.802423786025e+00 1.993030309677e-07
    9.558440639762e-01 2.437500000000e+02-2.476334473796e+00-8.424993791951e-09
    2.892977646988e-11 1.000000000000e+00 2.042000000000e+03 0.000000000000e+00
    2.400000000000e+00 0.000000000000e+00-1.117587089539e-08 1.400000000000e+01
    3.600000000000e+04 4.000000000000e+00
 5 19  2 24 12  0  0.0 1.130625605583e-06 0.000000000000e+00 0.000000000000e+00
    4.500000000000e+01-4.406250000000e+01 5.194144928414e-09 2.937027228756e+00
   -2.305954694748e-06 5.558667937294e-03 6.018206477165e-06 5.153629367828e+03
    4.320000000000e+04-5.774199962616e-08-3.320819036757e-01-9.872019290924e-08
    9.495970190303e-01 2.588125000000e+02 7.134755032557e-01-8.320703733566e-09
   -1.464346710204e-10 1.000000000000e+00 2.042000000000e+03 0.000000000000e+00
    2.400000000000e+00 0.000000000000e+00-1.117587089539e-08 4.500000000000e+01
    3.600000000000e+04 4.000000000000e+00
 3 19  2 24 12  0  0.0 1.843203790486e-04 1.591615728103e-12 0.000000000000e+00
    1.150000000000e+02-3.625000000000e+01 4.937705675261e-09-1.002496487877e+00
   -1.870095729828e-06 1.908386009745e-03 6.290152668953e-06 5.153569988251e+03
    4.320000000000e+04 3.352761268616e-08-3.065179456685e-01 3.911554813385e-08
    9.627330578562e-01 2.615625000000e+02 6.235220808146e-01-8.301060058185e-09
   -7.893185925733e-11 1.000000000000e+00 2.042000000000e+03 0.000000000000e+00
    2.400000000000e+00 0.000000000000e+00 2.328306436539e-09 1.150000000000e+02
    3.600000000000e+04 4.000000000000e+00
16 19  2 24 12  0  0.0-2.131750807166e-05-2.501110429876e-12 0.000000000000e+00
    3.400000000000e+01-2.475000000000e+01 4.093741949356e-09 3.034443385456e+00
   -1.369044184685e-06 1.063399866689e-02 5.191192030907e-06 5.153780374527e+03
    4.320000000000e+04-5.401670932770e-08 2.919610954955e+00-5.960464477539e-08
    9.844016760982e-01 2.935312500000e+02 5.438213193122e-01-7.973903573662e-09
   -2.421529437849e-10 1.000000000000e+00 2.042000000000e+03 0.000000000000e+00
    2.400000000000e+00 0.000000000000e+00-1.071020960808e-08 3.400000000000e+01
    3.600000000000e+04 4.000000000000e+00
28 19  2 24 12  0  0.0 7.652440108359e-04 6.821210263297e-13 0.000000000000e+00
    2.400000000000e+01-2.609375000000e+01 3.969808215589e-09 3.005747281805e+00
   -1.294538378716e-06 1.924968976527e-02 5.168840289116e-06 5.153701313019e+03
    4.320000000000e+04 2.682209014893e-07 2.923627422874e+00 0.000000000000e+00
    9.833328725383e-01 2.893750000000e+02-1.472570848704e+00-7.686391597634e-09
   -2.807259790781e-10 1.000000000000e+00 2.042000000000e+03 0.000000000000e+00
    2.400000000000e+00 0.000000000000e+00-1.117587089539e-08 2.400000000000e+01
    3.600000000000e+04 4.000000000000e+00
22 19  2 24 12  0  0.0-6.519365124404e-04-7.958078640513e-12 0.000000000000e+00
    5.000000000000e+01-3.656250000000e+01 5.778097823824e-09 1.404118379464e+00
   -2.039596438408e-06 7.201980450191e-03 5.673617124557e-06 5.153566007614e+03
    4.320000000000e+04 1.676380634308e-08-3.761610532120e-01-1.918524503708e-07
    9.270767045117e-01 2.553125000000e+02-1.413331757066e+00-8.740364071247e-09
   -3.464430021702e-11 1.000000000000e+00 2.042000000000e+03 0.000000000000e+00
    2.400000000000e+00 0.000000000000e+00-1.816079020500e-08 5.000000000000e+01
    3.600000000000e+04 4.000000000000e+00
11 19  2 24 12  0  0.0-6.551328115165e-04 6.139089236967e-12 0.000000000000e+00
    3.800000000000e+01 3.468750000000e+00 5.767383091798e-09-7.008899546513e-01
    1.173466444016e-07 1.653712301049e-02 9.031966328621e-06 5.153687835693e+03
    4.320000000000e+04-2.067536115646e-07-1.794274055196e+00-7.450580596924e-09
    9.082892580762e-01 1.830937500000e+02 1.865475129533e+00-8.960373235511e-09
    4.678766317969e-10 1.000000000000e+00 2.042000000000e+03 0.000000000000e+00
    2.400000000000e+00 0.000000000000e+00-1.210719347000e-08 3.800000000000e+01
    3.600000000000e+04 4.000000000000e+00
 9 19  2 24 12  0  0.0 4.540942609310e-04-5.456968210638e-12 0.000000000000e+00
    4.200000000000e+01-6.937500000000e+00 4.688766734526e-09 2.526635779653e+00
   -2.644956111908e-07 1.435440499336e-03 1.073442399502e-05 5.153732612610e+03
    4.320000000000e+04-7.450580596924e-09 7.256628323926e-01-5.029141902924e-08
    9.526945651984e-01 1.647812500000e+02 1.718174184623e+00-8.070693319629e-09
   -2.057228548969e-10 1.000000000000e+00 2.042000000000e+03 0.000000000000e+00
    2.400000000000e+00 0.000000000000e+00 1.396983861923e-09 4.200000000000e+01
    3.600000000000e+04 4.000000000000e+00
